*******************************************************************************
JPL/HORIZONS                     (2021 EN4)                2021-May-28 12:04:58
Rec #:50527492 (+COV) Soln.date: 2021-Apr-15_23:26:42        # obs: 23 (1 days)
 
IAU76/J2000 helio. ecliptic osc. elements (au, days, deg., period=Julian yrs):
 
  EPOCH=  2459289.5 ! 2021-Mar-16.00 (TDB)         Residual RMS= .37217
   EC= .757996441334828    QR= .7926117537607724   TP= 2459251.895744462
   OM= 174.6326929787979   W=  301.7774001932329   IN= 5.663458981255228
   A= 3.275207018163743    MA= 6.252920905699648   ADIST= 5.757802282566715
   PER= 5.92743            N= .166282264           ANGMOM= .020305827
   DAN= .99588             DDN= 2.31916            L= 116.5357523
   B= -4.8123286           MOID= .00029622         TP= 2021-Feb-06.3957444620
 
Asteroid physical parameters (km, seconds, rotational period in hours):
   GM= n.a.                RAD= n.a.               ROTPER= n.a.
   H= 29.68                G= .150                 B-V= n.a.
                           ALBEDO= n.a.            STYP= n.a.
 
ASTEROID comments: 
1: soln ref.= JPL#3, OCC=7
2: source=ORB
*******************************************************************************
 
 
*******************************************************************************
Ephemeris / WWW_USER Fri May 28 12:04:58 2021 Pasadena, USA      / Horizons    
*******************************************************************************
Target body name: (2021 EN4)                      {source: JPL#3}
Center body name: Solar System Barycenter (0)     {source: DE441}
Center-site name: BODYCENTRIC
*******************************************************************************
Start time      : A.D. 2014-Jan-01 00:00:00.0000 UT      
Stop  time      : A.D. 2023-Jan-01 00:00:00.0000 UT      
Step-size       : 1440 minutes
*******************************************************************************
Target pole/equ : No model available
Target radii    : (unavailable)                                                
Center geodetic : 0.00000000,0.00000000,0.0000000 {E-lon(deg),Lat(deg),Alt(km)}
Center cylindric: 0.00000000,0.00000000,0.0000000 {E-lon(deg),Dxy(km),Dz(km)}
Center pole/equ : ICRF
Center radii    : (undefined)                                                  
Target primary  : Sun
Vis. interferer : None
Rel. light bend : Sun                             {source: DE441}
Rel. lght bnd GM: 1.3271E+11 km^3/s^2                                          
Small-body perts: Yes                             {source: SB441-N16}
Atmos refraction: NO (AIRLESS)
RA format       : DEG
Time format     : CAL 
EOP file        : eop.210527.p210818                                           
EOP coverage    : DATA-BASED 1962-JAN-20 TO 2021-MAY-27. PREDICTS-> 2021-AUG-17
Units conversion: 1 au= 149597870.700 km, c= 299792.458 km/s, 1 day= 86400.0 s 
Table cut-offs 1: Elevation (-90.0deg=NO ),Airmass     n.a.    , Daylight (NO )
Table cut-offs 2: Solar elongation (  0.0,180.0=NO ),Local Hour Angle( 0.0=NO )
Table cut-offs 3: RA/DEC angular rate (     0.0=NO )                           
*******************************************************************************
Initial IAU76/J2000 heliocentric ecliptic osculating elements (au, days, deg.):
  EPOCH=  2459289.5 ! 2021-Mar-16.00 (TDB)         Residual RMS= .37217        
   EC= .757996441334828    QR= .7926117537607724   TP= 2459251.895744462       
   OM= 174.6326929787979   W=  301.7774001932329   IN= 5.663458981255228       
  Equivalent ICRF heliocentric cartesian coordinates (au, au/d):
   X=-9.993692439634217E-01  Y= 7.239493948902498E-02  Z= 3.293363977894978E-02
  VX=-1.103886264807885E-02 VY=-1.854543674738690E-02 VZ=-5.847439805496162E-03
Asteroid physical parameters (km, seconds, rotational period in hours):        
   GM= n.a.                RAD= n.a.               ROTPER= n.a.                
   H= 29.68                G= .150                 B-V= n.a.                   
                           ALBEDO= n.a.            STYP= n.a.                  
*******************************************************************************
 Date__(UT)__HR:MN                delta     GlxLon     GlxLat
*************************************************************
$$SOE
 2017-Mar-03 00:00     5.8685456023E+08   9.259013   5.335220
 2017-Mar-04 00:00     5.8758830006E+08   9.295573   5.270482
 2017-Mar-05 00:00     5.8832016193E+08   9.332034   5.205904
 2017-Mar-06 00:00     5.8905014930E+08   9.368397   5.141484
 2017-Mar-07 00:00     5.8977826557E+08   9.404664   5.077221
 2017-Mar-08 00:00     5.9050451417E+08   9.440833   5.013114
 2017-Mar-09 00:00     5.9122889849E+08   9.476907   4.949162
 2017-Mar-10 00:00     5.9195142191E+08   9.512886   4.885365
 2017-Mar-11 00:00     5.9267208777E+08   9.548770   4.821721
 2017-Mar-12 00:00     5.9339089944E+08   9.584561   4.758229
 2017-Mar-13 00:00     5.9410786022E+08   9.620259   4.694889
 2017-Mar-14 00:00     5.9482297344E+08   9.655864   4.631700
 2017-Mar-15 00:00     5.9553624239E+08   9.691377   4.568660
 2017-Mar-16 00:00     5.9624767034E+08   9.726800   4.505769
 2017-Mar-17 00:00     5.9695726056E+08   9.762132   4.443026
 2017-Mar-18 00:00     5.9766501629E+08   9.797375   4.380430
 2017-Mar-19 00:00     5.9837094076E+08   9.832528   4.317980
 2017-Mar-20 00:00     5.9907503719E+08   9.867593   4.255676
 2017-Mar-21 00:00     5.9977730878E+08   9.902570   4.193516
 2017-Mar-22 00:00     6.0047775870E+08   9.937460   4.131500
 2017-Mar-23 00:00     6.0117639012E+08   9.972264   4.069626
 2017-Mar-24 00:00     6.0187320620E+08  10.006981   4.007894
 2017-Mar-25 00:00     6.0256821007E+08  10.041613   3.946303
 2017-Mar-26 00:00     6.0326140485E+08  10.076160   3.884853
 2017-Mar-27 00:00     6.0395279364E+08  10.110623   3.823542
 2017-Mar-28 00:00     6.0464237955E+08  10.145003   3.762370
 2017-Mar-29 00:00     6.0533016564E+08  10.179300   3.701335
 2017-Mar-30 00:00     6.0601615497E+08  10.213514   3.640437
 2017-Mar-31 00:00     6.0670035059E+08  10.247646   3.579676
 2017-Apr-01 00:00     6.0738275553E+08  10.281697   3.519050
 2017-Apr-02 00:00     6.0806337280E+08  10.315667   3.458558
 2017-Apr-03 00:00     6.0874220542E+08  10.349557   3.398201
 2017-Apr-04 00:00     6.0941925635E+08  10.383368   3.337976
 2017-Apr-05 00:00     6.1009452858E+08  10.417100   3.277884
 2017-Apr-06 00:00     6.1076802507E+08  10.450753   3.217923
 2017-Apr-07 00:00     6.1143974875E+08  10.484328   3.158093
 2017-Apr-08 00:00     6.1210970256E+08  10.517826   3.098393
 2017-Apr-09 00:00     6.1277788941E+08  10.551247   3.038822
 2017-Apr-10 00:00     6.1344431221E+08  10.584591   2.979380
 2017-Apr-11 00:00     6.1410897383E+08  10.617860   2.920065
 2017-Apr-12 00:00     6.1477187716E+08  10.651053   2.860878
 2017-Apr-13 00:00     6.1543302505E+08  10.684172   2.801817
 2017-Apr-14 00:00     6.1609242034E+08  10.717216   2.742881
 2017-Apr-15 00:00     6.1675006588E+08  10.750187   2.684071
 2017-Apr-16 00:00     6.1740596448E+08  10.783084   2.625384
 2017-Apr-17 00:00     6.1806011894E+08  10.815909   2.566821
 2017-Apr-18 00:00     6.1871253205E+08  10.848661   2.508381
 2017-Apr-19 00:00     6.1936320660E+08  10.881341   2.450063
 2017-Apr-20 00:00     6.2001214534E+08  10.913951   2.391866
 2017-Apr-21 00:00     6.2065935103E+08  10.946489   2.333790
 2017-Apr-22 00:00     6.2130482641E+08  10.978957   2.275835
 2017-Apr-23 00:00     6.2194857419E+08  11.011355   2.217998
 2017-Apr-24 00:00     6.2259059710E+08  11.043684   2.160280
 2017-Apr-25 00:00     6.2323089783E+08  11.075944   2.102680
 2017-Apr-26 00:00     6.2386947907E+08  11.108135   2.045198
 2017-Apr-27 00:00     6.2450634349E+08  11.140259   1.987832
 2017-Apr-28 00:00     6.2514149375E+08  11.172314   1.930582
 2017-Apr-29 00:00     6.2577493250E+08  11.204303   1.873448
 2017-Apr-30 00:00     6.2640666237E+08  11.236225   1.816428
 2017-May-01 00:00     6.2703668599E+08  11.268081   1.759523
 2017-May-02 00:00     6.2766500597E+08  11.299871   1.702731
 2017-May-03 00:00     6.2829162490E+08  11.331596   1.646052
 2017-May-04 00:00     6.2891654537E+08  11.363256   1.589485
 2017-May-05 00:00     6.2953976995E+08  11.394851   1.533030
 2017-May-06 00:00     6.3016130121E+08  11.426383   1.476686
 2017-May-07 00:00     6.3078114169E+08  11.457851   1.420452
 2017-May-08 00:00     6.3139929392E+08  11.489255   1.364328
 2017-May-09 00:00     6.3201576044E+08  11.520597   1.308313
 2017-May-10 00:00     6.3263054375E+08  11.551876   1.252407
 2017-May-11 00:00     6.3324364636E+08  11.583094   1.196609
 2017-May-12 00:00     6.3385507075E+08  11.614250   1.140918
 2017-May-13 00:00     6.3446481940E+08  11.645345   1.085334
 2017-May-14 00:00     6.3507289478E+08  11.676379   1.029856
 2017-May-15 00:00     6.3567929934E+08  11.707353   0.974484
 2017-May-16 00:00     6.3628403552E+08  11.738266   0.919217
 2017-May-17 00:00     6.3688710576E+08  11.769121   0.864055
 2017-May-18 00:00     6.3748851246E+08  11.799916   0.808996
 2017-May-19 00:00     6.3808825804E+08  11.830652   0.754041
 2017-May-20 00:00     6.3868634490E+08  11.861330   0.699188
 2017-May-21 00:00     6.3928277542E+08  11.891950   0.644438
 2017-May-22 00:00     6.3987755197E+08  11.922513   0.589790
 2017-May-23 00:00     6.4047067691E+08  11.953018   0.535242
 2017-May-24 00:00     6.4106215260E+08  11.983466   0.480796
 2017-May-25 00:00     6.4165198138E+08  12.013858   0.426449
 2017-May-26 00:00     6.4224016557E+08  12.044193   0.372202
 2017-May-27 00:00     6.4282670750E+08  12.074473   0.318054
 2017-May-28 00:00     6.4341160947E+08  12.104697   0.264004
 2017-May-29 00:00     6.4399487377E+08  12.134867   0.210052
 2017-May-30 00:00     6.4457650270E+08  12.164981   0.156198
